NORAD_CAT_ID,OBJECT_NAME,OBJECT_TYPE,EPOCH,MEAN_MOTION,ECCENTRICITY,INCLINATION,RA_OF_ASC_NODE,ARG_OF_PERICENTER,MEAN_ANOMALY,BSTAR,MEAN_MOTION_DOT,MEAN_MOTION_DDOT,TLE_LINE0,TLE_LINE1,TLE_LINE2,SEMIMAJOR_AXIS,PERIOD,APOGEE,PERIGEE,DECAYED
51867.0,STARLINK-3590,PAYLOAD,2022-08-29 14:00:01,15.08848591,0.0001353,53.2175,31.6721,74.6168,244.333,-0.0016307,-0.00026153,0.0,0 STARLINK-3590,1 51867U 22022R   22241.58334491 -.00026153  00000-0 -16307-2 0  9991,2 51867  53.2175  31.6721 0001353  74.6168 244.3330 15.08848591  1308,6917.854,95.437,540.655,538.783,0.0
51867.0,STARLINK-3590,PAYLOAD,2022-08-29 22:00:00,15.08828334,0.0001363,53.2171,30.1766,66.7337,263.8121,0.001796,0.00028402,0.0,0 STARLINK-3590,1 51867U 22022R   22241.91667824  .00028402  00000-0  17960-2 0  9990,2 51867  53.2171  30.1766 0001363  66.7337 263.8121 15.08828334  1305,6917.916,95.438,540.724,538.8380000000002,0.0
51867.0,STARLINK-3590,PAYLOAD,2022-08-30 06:00:00,15.08819228,0.0001283,53.2172,28.6786,77.7639,264.3821,0.0028709,0.00045673,0.0,0 STARLINK-3590,1 51867U 22022R   22242.25001157  .00045673  00000-0  28709-2 0  9991,2 51867  53.2172  28.6786 0001283  77.7639 264.3821 15.08819228 28740,6917.944,95.439,540.696,538.9209999999998,0.0
51867.0,STARLINK-3590,PAYLOAD,2022-08-30 14:00:01,15.08868549,0.0001376999999999,53.2173,27.1834,74.6535,279.0767,-0.0028549,-0.00045472,0.0,0 STARLINK-3590,1 51867U 22022R   22242.58334491 -.00045472  00000-0 -28549-2 0  9998,2 51867  53.2173  27.1834 0001377  74.6535 279.0767 15.08868549  1309,6917.793000000002,95.436,540.611,538.706,0.0
51867.0,STARLINK-3590,PAYLOAD,2022-08-30 22:00:00,15.08831832,0.0001438,53.2169,25.6876,67.7485,297.5979,0.00029171,4.357e-05,0.0,0 STARLINK-3590,1 51867U 22022R   22242.91667824  .00004357  00000-0  29171-3 0  9992,2 51867  53.2169  25.6876 0001438  67.7485 297.5979 15.08831832  1303,6917.905,95.438,540.765,538.776,0.0
51867.0,STARLINK-3590,PAYLOAD,2022-08-31 14:00:01,15.08830814,0.0001501999999999,53.2174,22.6796,72.4141,316.1135,-0.0049412,-0.00078056,0.0,0 STARLINK-3590,1 51867U 22022R   22243.58334491 -.00078056  00000-0 -49412-2 0  9995,2 51867  53.2174  22.6796 0001502  72.4141 316.1135 15.08830814 28952,6917.908,95.438,540.813,538.734,0.0
51867.0,STARLINK-3590,PAYLOAD,2022-08-31 22:00:00,15.08837303,0.0001485,53.2169,21.1987,67.1846,332.9179,0.00093637,0.00014645,0.0,0 STARLINK-3590,1 51867U 22022R   22243.91667824  .00014645  00000-0  93637-3 0  9992,2 51867  53.2169  21.1987 0001485  67.1846 332.9179 15.08837303 29006,6917.889,95.438,540.781,538.726,0.0
51867.0,STARLINK-3590,PAYLOAD,2022-09-01 06:00:00,15.08789653,0.0001266,53.2171,19.7007,75.1718,336.5341,0.0031818,0.00050644,0.0,0 STARLINK-3590,1 51867U 22022R   22244.25001157  .00050644  00000-0  31818-2 0  9992,2 51867  53.2171  19.7007 0001266  75.1718 336.5341 15.08789653 29059,6918.034000000002,95.441,540.775,539.023,0.0
51867.0,STARLINK-3590,PAYLOAD,2022-09-01 14:00:01,15.08833413,0.0001392,53.2173,18.2057,69.6608,353.6627,-0.0015047,-0.00024151,0.0,0 STARLINK-3590,1 51867U 22022R   22244.58335648 -.00024151  00000-0 -15047-2 0  9995,2 51867  53.2173  18.2057 0001392  69.6608 353.6627 15.08833413  1305,6917.901,95.438,540.7280000000002,538.803,0.0
51867.0,STARLINK-3590,PAYLOAD,2022-09-01 22:00:00,15.08828661,0.0001393,53.2172,16.7097,62.636,12.2006,0.00067953,0.0001054,0.0,0 STARLINK-3590,1 51867U 22022R   22244.91667824  .00010540  00000-0  67953-3 0  9995,2 51867  53.2172  16.7097 0001393  62.6360  12.2006 15.08828661  1308,6917.915,95.438,540.744,538.816,0.0
51867.0,STARLINK-3590,PAYLOAD,2022-09-02 14:00:01,15.08849956,0.0001426999999999,53.2162,13.7168,67.5443,30.4607,-0.0013472,-0.0002166999999999,0.0,0 STARLINK-3590,1 51867U 22022R   22245.58334491 -.00021670  00000-0 -13472-2 0  9994,2 51867  53.2162  13.7168 0001427  67.5443  30.4607 15.08849956  1306,6917.85,95.437,540.702,538.7280000000002,0.0
51867.0,STARLINK-3590,PAYLOAD,2022-09-02 22:00:01,15.08848883,0.0001433,53.2156,12.2205,62.135,47.5275,8.3715e-05,1.045e-05,0.0,0 STARLINK-3590,1 51867U 22022R   22245.91668981  .00001045  00000-0  83715-4 0  9996,2 51867  53.2156  12.2205 0001433  62.1350  47.5275 15.08848883  1308,6917.853,95.437,540.71,538.727,0.0
51867.0,STARLINK-3590,PAYLOAD,2022-09-03 00:00:00,15.08857414,0.0001465999999999,53.2167,11.8316,62.7854,139.7227,-0.0028905999999999,-0.0004602,0.0,0 STARLINK-3590,1 51867U 22022R   22246.00001157 -.00046020  00000-0 -28906-2 0  9996,2 51867  53.2167  11.8316 0001466  62.7854 139.7227 15.08857414 29311,6917.8269999999975,95.436,540.706,538.678,0.0
51867.0,STARLINK-3590,PAYLOAD,2022-09-03 08:00:01,15.08850659,0.0001343,53.2161,10.3486,72.8944,141.2127,0.0012902,0.00020311,0.0,0 STARLINK-3590,1 51867U 22022R   22246.33334491  .00020311  00000-0  12902-2 0  9994,2 51867  53.2161  10.3486 0001343  72.8944 141.2127 15.08850659 29369,6917.848000000001,95.437,540.6419999999998,538.784,0.0
51867.0,STARLINK-3590,PAYLOAD,2022-09-03 14:00:01,15.08874282,0.000138,53.2161,9.2276,64.1497,68.6685,-0.0038281,-0.00060755,0.0,0 STARLINK-3590,1 51867U 22022R   22246.58334491 -.00060755  00000-0 -38281-2 0  9997,2 51867  53.2161   9.2276 0001380  64.1497  68.6685 15.08874282  1304,6917.776,95.435,540.595,538.686,0.0
51867.0,STARLINK-3590,PAYLOAD,2022-09-03 22:00:00,15.08852591,0.0001335,53.216,7.7311,58.3875,86.0456,-0.00011362,-2.096e-05,0.0,0 STARLINK-3590,1 51867U 22022R   22246.91667824 -.00002096  00000-0 -11362-3 0  9999,2 51867  53.2160   7.7311 0001335  58.3875  86.0456 15.08852591 29456,6917.842,95.437,540.63,538.783,0.0
51867.0,STARLINK-3590,PAYLOAD,2022-09-04 14:00:01,15.08859359,0.0001433,53.2162,4.7382,63.1543,104.5749,-0.0027645,-0.00044039,0.0,0 STARLINK-3590,1 51867U 22022R   22247.58335648 -.00044039  00000-0 -27645-2 0  9992,2 51867  53.2162   4.7382 0001433  63.1543 104.5749 15.08859359  1302,6917.821,95.436,540.678,538.695,0.0
51867.0,STARLINK-3590,PAYLOAD,2022-09-04 20:00:01,15.08844028,0.0001468,53.216,3.6161,58.6911,27.6927,-2.179e-05,-6.35e-06,0.0,0 STARLINK-3590,1 51867U 22022R   22247.83334491 -.00000635  00000-0 -21790-4 0  9996,2 51867  53.2160   3.6161 0001468  58.6911  27.6927 15.08844028  1309,6917.868,95.437,540.749,538.7180000000002,0.0
51867.0,STARLINK-3590,PAYLOAD,2022-09-05 06:00:00,15.08803145,0.000129,53.2161,1.7437,71.2397,119.6479,0.0029209,0.00046458,0.0,0 STARLINK-3590,1 51867U 22022R   22248.25001157  .00046458  00000-0  29209-2 0  9995,2 51867  53.2161   1.7437 0001290  71.2397 119.6479 15.08803145 29654,6917.993,95.44,540.75,538.966,0.0
51867.0,STARLINK-3590,PAYLOAD,2022-09-05 14:00:01,15.08843367,0.0001436,53.2161,0.249,64.1329,138.3262,-0.0016428,-0.0002634,0.0,0 STARLINK-3590,1 51867U 22022R   22248.58334491 -.00026340  00000-0 -16428-2 0  9990,2 51867  53.2161   0.2490 0001436  64.1329 138.3262 15.08843367  1305,6917.87,95.437,540.729,538.742,0.0
51867.0,STARLINK-3590,PAYLOAD,2022-09-05 22:00:00,15.08847457,0.0001508,53.2157,358.7522,64.0864,149.9589,-0.0051887,-0.00081944,0.0,0 STARLINK-3590,1 51867U 22022R   22248.91667824 -.00081944  00000-0 -51887-2 0  9995,2 51867  53.2157 358.7522 0001508  64.0864 149.9589 15.08847457 29753,6917.858,95.437,540.766,538.679,0.0
51867.0,STARLINK-3590,PAYLOAD,2022-09-06 06:00:00,15.0878092,0.0001512,53.2158,357.2546,74.4779,151.1398,0.0028906999999999,0.00045943,0.0,0 STARLINK-3590,1 51867U 22022R   22249.25001157  .00045943  00000-0  28907-2 0  9998,2 51867  53.2158 357.2546 0001512  74.4779 151.1398 15.08780920 29809,6918.061,95.441,540.972,538.88,0.0
51867.0,STARLINK-3590,PAYLOAD,2022-09-06 14:00:01,15.08835936,0.0001513,53.2174,355.7354,54.1951,182.9367,8.780700000000001e-05,1.11e-05,0.0,0 STARLINK-3590,1 51867U 22022R   22249.58334491  .00001110  00000-0  87807-4 0  9998,2 51867  53.2174 355.7354 0001513  54.1951 182.9367 15.08835936  1306,6917.893,95.438,540.804,538.711,0.0
51867.0,STARLINK-3590,PAYLOAD,2022-09-06 22:00:00,15.08850795,0.0001456,53.2155,354.26300000000015,65.0887,183.6784,-0.0013373,-0.00021514,0.0,0 STARLINK-3590,1 51867U 22022R   22249.91667824 -.00021514  00000-0 -13373-2 0  9991,2 51867  53.2155 354.2630 0001456  65.0887 183.6784 15.08850795  1302,6917.847,95.437,540.72,538.705,0.0
51867.0,STARLINK-3590,PAYLOAD,2022-09-07 06:00:00,15.08841477,0.0001438,53.2156,352.7654,74.7296,185.6341,0.00054498,8.396e-05,0.0,0 STARLINK-3590,1 51867U 22022R   22250.25001157  .00008396  00000-0  54498-3 0  9996,2 51867  53.2156 352.7654 0001438  74.7296 185.6341 15.08841477 29952,6917.876,95.437,540.736,538.746,0.0
51867.0,STARLINK-3590,PAYLOAD,2022-09-07 14:00:01,15.08824996,0.0001607,53.2155,351.2708,66.2589,205.7131,0.00012766,1.743e-05,0.0,0 STARLINK-3590,1 51867U 22022R   22250.58334491  .00001743  00000-0  12766-3 0  9993,2 51867  53.2155 351.2708 0001607  66.2589 205.7131 15.08824996  1301,6917.926,95.439,540.903,538.68,0.0
51867.0,STARLINK-3590,PAYLOAD,2022-09-07 22:00:00,15.08863375,0.0001493,53.2154,349.7738,65.5637,217.979,-0.0042802,-0.0006781,0.0,0 STARLINK-3590,1 51867U 22022R   22250.91667824 -.00067810  00000-0 -42802-2 0  9991,2 51867  53.2154 349.7738 0001493  65.5637 217.9790 15.08863375 30058,6917.809,95.436,540.707,538.641,0.0
51867.0,STARLINK-3590,PAYLOAD,2022-09-08 06:00:00,15.08812713,0.0001389,53.2155,348.2762,71.8497,223.3087,0.0024124,0.00038285,0.0,0 STARLINK-3590,1 51867U 22022R   22251.25001157  .00038285  00000-0  24124-2 0  9999,2 51867  53.2155 348.2762 0001389  71.8497 223.3087 15.08812713 30104,6917.964,95.439,540.79,538.868,0.0
51867.0,STARLINK-3590,PAYLOAD,2022-09-08 14:00:01,15.08825947,0.0001519,53.2156,346.7817,62.8099,243.9281,0.00063309,9.798e-05,0.0,0 STARLINK-3590,1 51867U 22022R   22251.58334491  .00009798  00000-0  63309-3 0  9991,2 51867  53.2156 346.7817 0001519  62.8099 243.9281 15.08825947  1309,6917.9230000000025,95.438,540.839,538.738,0.0
